NORAD_CAT_ID,OBJECT_NAME,OBJECT_TYPE,EPOCH,MEAN_MOTION,ECCENTRICITY,INCLINATION,RA_OF_ASC_NODE,ARG_OF_PERICENTER,MEAN_ANOMALY,BSTAR,MEAN_MOTION_DOT,MEAN_MOTION_DDOT,TLE_LINE0,TLE_LINE1,TLE_LINE2,SEMIMAJOR_AXIS,PERIOD,APOGEE,PERIGEE,DECAYED
56464.0,STARLINK-6043,PAYLOAD,2024-04-09 09:59:13,14.98328972,0.0002985,69.9986,107.494,260.1543,99.9279,-2.1747e-05,-3.52e-06,0.0,0 STARLINK-6043,1 56464U 23064S   24100.41613197 -.00000352  00000-0 -21747-4 0  9996,2 56464  69.9986 107.4940 0002985 260.1543  99.9279 14.98328972 50502,6950.196,96.107,574.136,569.986,0.0
56464.0,STARLINK-6043,PAYLOAD,2024-04-10 05:12:50,14.98330551,0.0003038,69.9985,105.4741,268.3845,91.6966,-4.8439e-06,-1.51e-06,0.0,0 STARLINK-6043,1 56464U 23064S   24101.21725036 -.00000151  00000-0 -48439-5 0  9996,2 56464  69.9985 105.4741 0003038 268.3845  91.6966 14.98330551 50983,6950.191,96.107,574.168,569.945,0.0
56464.0,STARLINK-6043,PAYLOAD,2024-04-10 10:01:14,14.98330089,0.0003042,69.9987,104.9695,269.7058,90.3753,1.5518e-05,9.2e-07,0.0,0 STARLINK-6043,1 56464U 23064S   24101.41753014  .00000092  00000-0  15518-4 0  9998,2 56464  69.9987 104.9695 0003042 269.7058  90.3753 14.98330089 50653,6950.193,96.107,574.172,569.943,0.0
56464.0,STARLINK-6043,PAYLOAD,2024-04-10 18:01:55,14.98299711,0.0002901,69.9987,104.1275,278.9931,81.0899,0.00053371,6.276e-05,0.0,0 STARLINK-6043,1 56464U 23064S   24101.75133915  .00006276  00000-0  53371-3 0  9995,2 56464  69.9987 104.1275 0002901 278.9931  81.0899 14.98299711 51064,6950.287,96.109,574.168,570.135,0.0
56464.0,STARLINK-6043,PAYLOAD,2024-04-10 22:50:19,14.98329708,0.0003137,69.9985,103.6224,271.7846,88.2954,2.2159e-05,1.71e-06,0.0,0 STARLINK-6043,1 56464U 23064S   24101.95160959  .00000171  00000-0  22159-4 0  9994,2 56464  69.9985 103.6224 0003137 271.7846  88.2954 14.98329708 50732,6950.194,96.107,574.239,569.879,0.0
56464.0,STARLINK-6043,PAYLOAD,2024-04-11 05:14:51,14.98327738,0.000307,69.9985,102.9491,270.0139,90.0668,2.5736e-05,2.14e-06,0.0,0 STARLINK-6043,1 56464U 23064S   24102.21865077  .00000214  00000-0  25736-4 0  9999,2 56464  69.9985 102.9491 0003070 270.0139  90.0668 14.98327738 51132,6950.2,96.107,574.199,569.931,0.0
56464.0,STARLINK-6043,PAYLOAD,2024-04-11 10:03:15,14.98329409,0.0003073,69.9985,102.4441,270.4879,89.5928,4.1908e-05,4.07e-06,0.0,0 STARLINK-6043,1 56464U 23064S   24102.41892940  .00000407  00000-0  41908-4 0  9993,2 56464  69.9985 102.4441 0003073 270.4879  89.5928 14.98329409 50802,6950.195,96.107,574.196,569.924,0.0
56464.0,STARLINK-6043,PAYLOAD,2024-04-12 10:05:16,14.98329591,0.0003,69.9985,99.9193,268.2173,91.8642,-3.7704e-06,-1.38e-06,0.0,0 STARLINK-6043,1 56464U 23064S   24103.42032983 -.00000138  00000-0 -37704-5 0  9991,2 56464  69.9985  99.9193 0003000 268.2173  91.8642 14.98329591 51316,6950.194,96.107,574.144,569.974,0.0
56464.0,STARLINK-6043,PAYLOAD,2024-04-13 05:18:54,14.98315038,0.0002904,69.9987,97.8992,267.8029,92.2798,-0.00013353,-1.685e-05,0.0,0 STARLINK-6043,1 56464U 23064S   24104.22146800 -.00001685  00000-0 -13353-3 0  9994,2 56464  69.9987  97.8992 0002904 267.8029  92.2798 14.98315038 51430,6950.239,96.108,574.123,570.086,0.0
56464.0,STARLINK-6043,PAYLOAD,2024-04-13 10:07:19,14.98313557,0.0002876,69.999,97.3947,269.3861,90.6968,-0.00013213,-1.668e-05,0.0,0 STARLINK-6043,1 56464U 23064S   24104.42175108 -.00001668  00000-0 -13213-3 0  9995,2 56464  69.9990  97.3947 0002876 269.3861  90.6968 14.98313557 51107,6950.244,96.108,574.108,570.11,0.0
56464.0,STARLINK-6043,PAYLOAD,2024-04-14 03:44:47,14.98321614,0.0002914,69.9992,95.5439,270.4889,89.5936,-2.5896e-05,-4.02e-06,0.0,0 STARLINK-6043,1 56464U 23064S   24105.15610810 -.00000402  00000-0 -25896-4 0  9996,2 56464  69.9992  95.5439 0002914 270.4889  89.5936 14.98321614 51577,6950.219,96.108,574.109,570.059,0.0
56464.0,STARLINK-6043,PAYLOAD,2024-04-14 10:09:19,14.98323692,0.0002737,69.9998,94.8707,266.2568,93.8278,7.0708e-06,-9e-08,0.0,0 STARLINK-6043,1 56464U 23064S   24105.42314697 -.00000009  00000-0  70708-5 0  9995,2 56464  69.9998  94.8707 0002737 266.2568  93.8278 14.98323692 51253,6950.212,96.107,573.98,570.175,0.0
56464.0,STARLINK-6043,PAYLOAD,2024-04-15 03:46:48,14.98326716,0.000249,70.0001,93.0199,253.5641,106.5244,0.00022291,2.567e-05,0.0,0 STARLINK-6043,1 56464U 23064S   24106.15750145  .00002567  00000-0  22291-3 0  9990,2 56464  70.0001  93.0199 0002490 253.5641 106.5244 14.98326716 51721,6950.203,96.107,573.799,570.337,0.0
56464.0,STARLINK-6043,PAYLOAD,2024-04-15 08:35:12,14.98320788,0.0002576,69.9996,92.5123,271.312,88.7744,0.0003188,3.712e-05,0.0,0 STARLINK-6043,1 56464U 23064S   24106.35778355  .00003712  00000-0  31880-3 0  9992,2 56464  69.9996  92.5123 0002576 271.3120  88.7744 14.98320788 51399,6950.221,96.108,573.877,570.296,0.0
56464.0,STARLINK-6043,PAYLOAD,2024-04-16 05:24:56,14.9834289,0.0002729,69.9989,90.3244,267.3896,92.6951,0.0001711,1.95e-05,0.0,0 STARLINK-6043,1 56464U 23064S   24107.22564958  .00001950  00000-0  17110-3 0  9993,2 56464  69.9989  90.3244 0002729 267.3896  92.6951 14.98342890 51882,6950.153,96.106,573.915,570.121,0.0
56464.0,STARLINK-6043,PAYLOAD,2024-04-16 08:37:11,14.98348147,0.0002905,69.9991,89.9876,271.0144,89.0683,0.00019499,2.235e-05,0.0,0 STARLINK-6043,1 56464U 23064S   24107.35916398  .00002235  00000-0  19499-3 0  9995,2 56464  69.9991  89.9876 0002905 271.0144  89.0683 14.98348147 51540,6950.137,96.106,574.021,569.983,0.0
56464.0,STARLINK-6043,PAYLOAD,2024-04-16 16:37:52,14.98340987,0.0002508,70.0004,89.1461,275.1069,84.9803,0.00010304,1.137e-05,0.0,0 STARLINK-6043,1 56464U 23064S   24107.69296935  .00001137  00000-0  10304-3 0  9996,2 56464  70.0004  89.1461 0002508 275.1069  84.9803 14.98340987 51597,6950.159,96.106,573.767,570.281,0.0
56464.0,STARLINK-6043,PAYLOAD,2024-04-17 05:26:56,14.98342154,0.0002464,69.9997,87.7995,264.7252,95.3626,3.6615e-05,3.44e-06,0.0,0 STARLINK-6043,1 56464U 23064S   24108.22704471  .00000344  00000-0  36615-4 0  9998,2 56464  69.9997  87.7995 0002464 264.7252  95.3626 14.98342154 52037,6950.155,96.106,573.733,570.308,0.0
56464.0,STARLINK-6043,PAYLOAD,2024-04-17 08:39:12,14.98344417,0.0002501,69.9999,87.4627,264.8757,95.2117,6.6292e-05,6.98e-06,0.0,0 STARLINK-6043,1 56464U 23064S   24108.36056097  .00000698  00000-0  66292-4 0  9993,2 56464  69.9999  87.4627 0002501 264.8757  95.2117 14.98344417 51690,6950.148,96.106,573.752,570.275,0.0
56464.0,STARLINK-6043,PAYLOAD,2024-04-18 08:41:15,14.98321898,0.0002334,70.0005,84.9384,265.1015,94.9878,-0.00021829,-2.696e-05,0.0,0 STARLINK-6043,1 56464U 23064S   24109.36198038 -.00002696  00000-0 -21829-3 0  9994,2 56464  70.0005  84.9384 0002334 265.1015  94.9878 14.98321898 52204,6950.218,96.108,573.705,570.461,0.0
56464.0,STARLINK-6043,PAYLOAD,2024-04-19 03:54:51,14.98328592,0.0003009,69.9994,82.9169,269.5407,90.5407,-6.3113e-05,-8.46e-06,0.0,0 STARLINK-6043,1 56464U 23064S   24110.16309146 -.00000846  00000-0 -63113-4 0  9996,2 56464  69.9994  82.9169 0003009 269.5407  90.5407 14.98328592 52321,6950.197,96.107,574.154,569.971,0.0
56464.0,STARLINK-6043,PAYLOAD,2024-04-19 07:07:06,14.98336395,0.0002833,69.9993,82.5821,262.1621,97.9216,8.656e-06,1e-07,0.0,0 STARLINK-6043,1 56464U 23064S   24110.29660398  .00000010  00000-0  86560-5 0  9992,2 56464  69.9993  82.5821 0002833 262.1621  97.9216 14.98336395 52343,6950.173,96.107,574.007,570.069,0.0
56464.0,STARLINK-6043,PAYLOAD,2024-04-20 08:45:13,14.98345642,0.0002663,69.9999,79.8888,263.4709,96.6147,0.00036124,4.222e-05,0.0,0 STARLINK-6043,1 56464U 23064S   24111.36474519  .00004222  00000-0  36124-3 0  9997,2 56464  69.9999  79.8888 0002663 263.4709  96.6147 14.98345642 52505,6950.145,96.106,573.86,570.159,0.0
56464.0,STARLINK-6043,PAYLOAD,2024-04-21 03:58:54,14.9830493,0.0002801,69.9999,77.87,266.6587,93.4251,-0.00030633,-3.744e-05,0.0,0 STARLINK-6043,1 56464U 23064S   24112.16591422 -.00003744  00000-0 -30633-3 0  9998,2 56464  69.9999  77.8700 0002801 266.6587  93.4251 14.98304930 52628,6950.27,96.109,574.082,570.189,0.0
56464.0,STARLINK-6043,PAYLOAD,2024-04-21 07:11:10,14.98308919,0.0002893,69.9998,77.5337,265.1898,94.8931,-0.00025784,-3.166e-05,0.0,0 STARLINK-6043,1 56464U 23064S   24112.29943198 -.00003166  00000-0 -25784-3 0  9992,2 56464  69.9998  77.5337 0002893 265.1898  94.8931 14.98308919 52283,6950.258,96.108,574.134,570.112,0.0
56464.0,STARLINK-6043,PAYLOAD,2024-04-22 04:00:54,14.98340258,0.0002405,70.0019,75.3473,231.8508,128.2435,-1.9897e-05,-3.3e-06,0.0,0 STARLINK-6043,1 56464U 23064S   24113.16729310 -.00000330  00000-0 -19897-4 0  9996,2 56464  70.0019  75.3473 0002405 231.8508 128.2435 14.98340258 52771,6950.161,96.106,573.698,570.355,0.0
56464.0,STARLINK-6043,PAYLOAD,2024-04-22 07:13:09,14.98345046,0.0002636,70.0003,75.008,258.4413,101.645,2.114e-05,1.59e-06,0.0,0 STARLINK-6043,1 56464U 23064S   24113.30081016  .00000159  00000-0  21140-4 0  9997,2 56464  70.0003  75.0080 0002636 258.4413 101.6450 14.98345046 52436,6950.146,96.106,573.843,570.179,0.0
56464.0,STARLINK-6043,PAYLOAD,2024-04-22 21:38:22,14.98325306,0.0002669,70.0003,73.4927,269.0526,91.0328,0.00046082,5.409e-05,0.0,0 STARLINK-6043,1 56464U 23064S   24113.90164803  .00005409  00000-0  46082-3 0  9993,2 56464  70.0003  73.4927 0002669 269.0526  91.0328 14.98325306 52520,6950.207,96.107,573.927,570.217,0.0
56464.0,STARLINK-6043,PAYLOAD,2024-04-23 04:02:54,14.98329445,0.0002311,70.0006,72.8187,265.1364,94.9532,0.0004783,5.618e-05,0.0,0 STARLINK-6043,1 56464U 23064S   24114.16868599  .00005618  00000-0  47830-3 0  9999,2 56464  70.0006  72.8187 0002311 265.1364  94.9532 14.98329445 52926,6950.195,96.107,573.666,570.453,0.0
56464.0,STARLINK-6043,PAYLOAD,2024-04-23 07:15:10,14.98333975,0.0002386,70.0011,72.4836,270.0283,90.0602,0.00052817,6.215e-05,0.0,0 STARLINK-6043,1 56464U 23064S   24114.30220185  .00006215  00000-0  52817-3 0  9993,2 56464  70.0011  72.4836 0002386 270.0283  90.0602 14.98333975 52586,6950.181,96.107,573.704,570.387,0.0
